[Satellite]
VERSION=1.1
NAME=FLOCK 3P-86
NICKNAME=FLOCK 3P-86
TLE1=1 41985U 17008AP  17186.29115671  .00001500  00000-0  67554-4 0  9995
TLE2=2 41985  97.4971 247.6498 0009600 128.3633 231.8467 15.22608394 21124
